ONEWEB-0249             
1 48967U 21060A   24175.56105060  .00000058  00000+0  11898-3 0  9997
2 48967  87.9101  12.8330 0001797  85.4585 274.6751 13.16595489144392
ONEWEB-0250             
1 48968U 21060B   24175.56563997  .00000062  00000+0  12941-3 0  9990
2 48968  87.9100  12.8150 0001985  79.7592 280.3763 13.16601432145669
ONEWEB-0252             
1 48970U 21060D   24175.59271799  .00000010  00000+0 -79839-5 0  9997
2 48970  87.9101  12.8196 0001981  90.7415 269.3943 13.16594573144445
ONEWEB-0253             
1 48971U 21060E   24175.58163656 -.00000048  00000+0 -15943-3 0  9995
2 48971  87.9099  12.8340 0002119  83.8771 276.2601 13.16594659144370
ONEWEB-0254             
1 48972U 21060F   24175.59112212 -.00000021  00000+0 -87973-4 0  9993
2 48972  87.9099  12.8095 0002133  82.6752 277.4621 13.16596550144377
ONEWEB-0255             
1 48973U 21060G   24175.55313725  .00000058  00000+0  11775-3 0  9996
2 48973  87.9100  12.8519 0001853  86.5300 273.6043 13.16595092144446
ONEWEB-0256             
1 48974U 21060H   24175.57926445 -.00000048  00000+0 -15874-3 0  9993
2 48974  87.9103  12.8499 0001892  93.5699 266.5648 13.16594257144410
ONEWEB-0257             
1 48975U 21060J   24175.61171915  .00000104  00000+0  23844-3 0  9990
2 48975  87.9100  12.8142 0001992  89.0697 271.0662 13.16594539144377
